{
  "type": "FeatureCollection",
  "features": [
    {
      "type": "Feature",
      "properties": {
        "norad_id": 66524,
        "name": "STARLINK-35687",
        "group": "last-30-days",
        "lat": 41.48898043907026,
        "lon": 133.60979733057633,
        "alt_km": 416.87882380832343,
        "timestamp": "2025-12-11T08:58:25.854186+00:00",
        "meta_object_name": "STARLINK-35687",
        "meta_object_id": "2025-265J",
        "meta_epoch": "2025-12-11T04:00:01.998720",
        "meta_mean_motion": 15.49031222,
        "meta_eccentricity": 0.0001716,
        "meta_inclination": 42.9998,
        "meta_ra_of_asc_node": 63.1836,
        "meta_arg_of_pericenter": 263.3159,
        "meta_mean_anomaly": 96.4511,
        "meta_ephemeris_type": 0,
        "meta_classification_type": "U",
        "meta_norad_cat_id": 66524,
        "meta_element_set_no": 999,
        "meta_rev_at_epoch": 474,
        "meta_bstar": -0.041748,
        "meta_mean_motion_dot": -0.02062654,
        "meta_mean_motion_ddot": 0,
        "tle_line1": "1 66524U 25265J   25345.16668980 -.02062654  00000+0 -41748-1 0  9997",
        "tle_line2": "2 66524  42.9998  63.1836 0001716 263.3159  96.4511 15.49031222  4747"
      },
      "geometry": {
        "type": "Point",
        "coordinates": [
          133.60979733057633,
          41.48898043907026
        ]
      }
    },
    {
      "type": "Feature",
      "properties": {
        "norad_id": 66525,
        "name": "STARLINK-35975",
        "group": "last-30-days",
        "lat": 42.290398697371224,
        "lon": 139.42713225007972,
        "alt_km": 409.36085109351916,
        "timestamp": "2025-12-11T08:58:25.854198+00:00",
        "meta_object_name": "STARLINK-35975",
        "meta_object_id": "2025-265K",
        "meta_epoch": "2025-12-11T04:00:01.998720",
        "meta_mean_motion": 15.50608831,
        "meta_eccentricity": 0.0001535,
        "meta_inclination": 42.9999,
        "meta_ra_of_asc_node": 63.1772,
        "meta_arg_of_pericenter": 263.1339,
        "meta_mean_anomaly": 99.518,
        "meta_ephemeris_type": 0,
        "meta_classification_type": "U",
        "meta_norad_cat_id": 66525,
        "meta_element_set_no": 999,
        "meta_rev_at_epoch": 474,
        "meta_bstar": -0.0013656,
        "meta_mean_motion_dot": -0.00079731,
        "meta_mean_motion_ddot": 0,
        "tle_line1": "1 66525U 25265K   25345.16668980 -.00079731  00000+0 -13656-2 0  9998",
        "tle_line2": "2 66525  42.9999  63.1772 0001535 263.1339  99.5180 15.50608831  4749"
      },
      "geometry": {
        "type": "Point",
        "coordinates": [
          139.42713225007972,
          42.290398697371224
        ]
      }
    },
    {
      "type": "Feature",
      "properties": {
        "norad_id": 66526,
        "name": "STARLINK-35932",
        "group": "last-30-days",
        "lat": 42.54493352428002,
        "lon": 141.98976152287332,
        "alt_km": 409.38092013534333,
        "timestamp": "2025-12-11T08:58:25.854209+00:00",
        "meta_object_name": "STARLINK-35932",
        "meta_object_id": "2025-265L",
        "meta_epoch": "2025-12-11T04:00:01.998720",
        "meta_mean_motion": 15.50596127,
        "meta_eccentricity": 0.00016,
        "meta_inclination": 43,
        "meta_ra_of_asc_node": 63.1725,
        "meta_arg_of_pericenter": 261.403,
        "meta_mean_anomaly": 103.166,
        "meta_ephemeris_type": 0,
        "meta_classification_type": "U",
        "meta_norad_cat_id": 66526,
        "meta_element_set_no": 999,
        "meta_rev_at_epoch": 463,
        "meta_bstar": -0.0010188,
        "meta_mean_motion_dot": -0.00059694,
        "meta_mean_motion_ddot": 0,
        "tle_line1": "1 66526U 25265L   25345.16668980 -.00059694  00000+0 -10188-2 0  9992",
        "tle_line2": "2 66526  43.0000  63.1725 0001600 261.4030 103.1660 15.50596127  4632"
      },
      "geometry": {
        "type": "Point",
        "coordinates": [
          141.98976152287332,
          42.54493352428002
        ]
      }
    },
    {
      "type": "Feature",
      "properties": {
        "norad_id": 66527,
        "name": "STARLINK-35935",
        "group": "last-30-days",
        "lat": 42.74169223328928,
        "lon": 144.57179000044232,
        "alt_km": 409.3137556681386,
        "timestamp": "2025-12-11T08:58:25.854219+00:00",
        "meta_object_name": "STARLINK-35935",
        "meta_object_id": "2025-265M",
        "meta_epoch": "2025-12-11T04:00:01.998720",
        "meta_mean_motion": 15.5056931,
        "meta_eccentricity": 0.0001549,
        "meta_inclination": 43,
        "meta_ra_of_asc_node": 63.1676,
        "meta_arg_of_pericenter": 258.0443,
        "meta_mean_anomaly": 108.4469,
        "meta_ephemeris_type": 0,
        "meta_classification_type": "U",
        "meta_norad_cat_id": 66527,
        "meta_element_set_no": 999,
        "meta_rev_at_epoch": 474,
        "meta_bstar": 6.3658e-05,
        "meta_mean_motion_dot": 3.393e-05,
        "meta_mean_motion_ddot": 0,
        "tle_line1": "1 66527U 25265M   25345.16668980  .00003393  00000+0  63658-4 0  9998",
        "tle_line2": "2 66527  43.0000  63.1676 0001549 258.0443 108.4469 15.50569310  4741"
      },
      "geometry": {
        "type": "Point",
        "coordinates": [
          144.57179000044232,
          42.74169223328928
        ]
      }
    },
    {
      "type": "Feature",
      "properties": {
        "norad_id": 66528,
        "name": "STARLINK-35928",
        "group": "last-30-days",
        "lat": 42.88136680814264,
        "lon": 147.19911482179324,
        "alt_km": 409.30260461047146,
        "timestamp": "2025-12-11T08:58:25.854231+00:00",
        "meta_object_name": "STARLINK-35928",
        "meta_object_id": "2025-265N",
        "meta_epoch": "2025-12-11T04:00:01.998720",
        "meta_mean_motion": 15.50626579,
        "meta_eccentricity": 0.0001583,
        "meta_inclination": 43.0002,
        "meta_ra_of_asc_node": 63.1636,
        "meta_arg_of_pericenter": 264.5647,
        "meta_mean_anomaly": 103.8341,
        "meta_ephemeris_type": 0,
        "meta_classification_type": "U",
        "meta_norad_cat_id": 66528,
        "meta_element_set_no": 999,
        "meta_rev_at_epoch": 474,
        "meta_bstar": -0.0020548,
        "meta_mean_motion_dot": -0.0011927,
        "meta_mean_motion_ddot": 0,
        "tle_line1": "1 66528U 25265N   25345.16668980 -.00119270  00000+0 -20548-2 0  9992",
        "tle_line2": "2 66528  43.0002  63.1636 0001583 264.5647 103.8341 15.50626579  4745"
      },
      "geometry": {
        "type": "Point",
        "coordinates": [
          147.19911482179324,
          42.88136680814264
        ]
      }
    },
    {
      "type": "Feature",
      "properties": {
        "norad_id": 66529,
        "name": "STARLINK-35933",
        "group": "last-30-days",
        "lat": 42.88645355911844,
        "lon": 147.33062209275656,
        "alt_km": 415.6804665359732,
        "timestamp": "2025-12-11T08:58:25.854244+00:00",
        "meta_object_name": "STARLINK-35933",
        "meta_object_id": "2025-265P",
        "meta_epoch": "2025-12-11T04:00:01.998720",
        "meta_mean_motion": 15.49399693,
        "meta_eccentricity": 0.0001796,
        "meta_inclination": 42.9998,
        "meta_ra_of_asc_node": 63.1587,
        "meta_arg_of_pericenter": 268.3485,
        "meta_mean_anomaly": 101.4033,
        "meta_ephemeris_type": 0,
        "meta_classification_type": "U",
        "meta_norad_cat_id": 66529,
        "meta_element_set_no": 999,
        "meta_rev_at_epoch": 474,
        "meta_bstar": -0.041657,
        "meta_mean_motion_dot": -0.0208283,
        "meta_mean_motion_ddot": 0,
        "tle_line1": "1 66529U 25265P   25345.16668980 -.02082830  00000+0 -41657-1 0  9999",
        "tle_line2": "2 66529  42.9998  63.1587 0001796 268.3485 101.4033 15.49399693  4745"
      },
      "geometry": {
        "type": "Point",
        "coordinates": [
          147.33062209275656,
          42.88645355911844
        ]
      }
    },
    {
      "type": "Feature",
      "properties": {
        "norad_id": 66530,
        "name": "STARLINK-35961",
        "group": "last-30-days",
        "lat": 42.97854957701115,
        "lon": 152.42135194787028,
        "alt_km": 409.3847224466099,
        "timestamp": "2025-12-11T08:58:25.854254+00:00",
        "meta_object_name": "STARLINK-35961",
        "meta_object_id": "2025-265Q",
        "meta_epoch": "2025-12-11T04:00:01.998720",
        "meta_mean_motion": 15.50645644,
        "meta_eccentricity": 0.0001683,
        "meta_inclination": 43,
        "meta_ra_of_asc_node": 63.1528,
        "meta_arg_of_pericenter": 268.1518,
        "meta_mean_anomaly": 104.0705,
        "meta_ephemeris_type": 0,
        "meta_classification_type": "U",
        "meta_norad_cat_id": 66530,
        "meta_element_set_no": 999,
        "meta_rev_at_epoch": 474,
        "meta_bstar": -0.0032488,
        "meta_mean_motion_dot": -0.00186906,
        "meta_mean_motion_ddot": 0,
        "tle_line1": "1 66530U 25265Q   25345.16668980 -.00186906  00000+0 -32488-2 0  9991",
        "tle_line2": "2 66530  43.0000  63.1528 0001683 268.1518 104.0705 15.50645644  4745"
      },
      "geometry": {
        "type": "Point",
        "coordinates": [
          152.42135194787028,
          42.97854957701115
        ]
      }
    }
  ]
}